SL-16 R/B               
1 24298U 96051B   26195.65091691  .00000156  00000+0  11113-3 0  9997
2 24298  70.7647 266.5289 0017760 298.7889  61.1447 14.12456256539576
ORBVIEW 2 (SEASTAR)     
1 24883U 97037A   26195.48133063  .00000095  00000+0  49190-4 0  9992
2 24883  98.8713   3.2603 0003113  62.3841 297.7659 14.35566571526662
SL-16 R/B               
1 25400U 98043G   26195.86655127 -.00000004  00000+0  17284-4 0  9998
2 25400  98.8379 150.2662 0010051  12.4106 347.7319 14.26072659457114
SL-16 R/B               
1 25407U 98045B   26195.64127120 -.00000213  00000+0 -83583-4 0  9998
2 25407  71.0111 274.5935 0008206 207.4322 152.6369 14.16205496445072
ISS (ZARYA)             
1 25544U 98067A   26195.86320345  .00002555  00000+0  54527-4 0  9997
2 25544  51.6306 163.1262 0006677 297.0398  62.9909 15.49008846576040
CZ-4B R/B               
1 25732U 99025C   26195.73200256  .00000019  00000+0  30054-4 0  9997
2 25732  98.6472 236.8754 0036660 341.0970 130.5114 14.18287646406177
OKEAN-O                 
1 25860U 99039A   26195.72014341  .00000267  00000+0  41628-4 0  9995
2 25860  97.9302 254.1999 0000903  85.5938 274.5378 14.80497069453187
SL-16 R/B               
1 25861U 99039B   26195.71637860  .00000216  00000+0  34052-4 0  9999
2 25861  97.9824 254.4989 0014274 199.9927 160.0728 14.81870483455673
DELTA 2 R/B             
1 25876U 99041E   26195.28463832  .00001336  00000+0  25316-3 0  9992
2 25876  51.7612 155.5352 0501364   2.0695 358.2160 14.12082542380914
HELIOS 1B               
1 25977U 99064A   26195.74840462  .00000664  00000+0  78572-4 0  9994
2 25977  98.1585 101.6834 0001961  54.2215 305.9183 14.88074608704159
TERRA                   
1 25994U 99068A   26195.82643748  .00000192  00000+0  48110-4 0  9995
2 25994  97.9442 244.2747 0003396 123.3921 325.4297 14.61123539413643
SL-16 R/B               
1 26070U 00006B   26195.40695707 -.00000171  00000+0 -62755-4 0  9991
2 26070  71.0002 191.3903 0017167 341.0591  18.9892 14.15838156366495
TITAN 4B R/B            
1 26474U 00047B   26195.80938069  .00001241  00000+0  82196-4 0  9997
2 26474  67.9873  42.8137 0045845 259.1344 100.4644 15.10332053412104
ENVISAT                 
1 27386U 02009A   26195.85116837  .00000017  00000+0  19377-4 0  9997
2 27386  98.3846 146.5548 0001330  83.5093 331.0582 14.39070704277467
IDEFIX & ARIANE 42P R/B 
1 27422U 02021B   26195.81666542  .00000085  00000+0  48864-4 0  9999
2 27422  98.5942 133.0011 0011865 167.5595 192.5883 14.31093652262206
AQUA                    
1 27424U 02022A   26195.50499725  .00000358  00000+0  80864-4 0  9994
2 27424  98.4295 165.3370 0000927 111.8770   0.7592 14.62196472287266
CZ-4B R/B               
1 27432U 02024C   26195.76463521  .00000008  00000+0  26782-4 0  9999
2 27432  98.8687 248.4036 0050492  23.2026  85.5401 14.14568199247204
MIDORI II (ADEOS-II)    
1 27597U 02056A   26195.85855374  .00000093  00000+0  54332-4 0  9993
2 27597  98.7894 155.3561 0001493  41.2919 318.8375 14.29362945228468
H-2A R/B                
1 27601U 02056E   26195.85433692  .00000117  00000+0  55161-4 0  9992
2 27601  98.3328 151.5226 0070870 141.9332 273.2130 14.33833787232336
CZ-4B R/B               
1 28059U 03049C   26195.59914611  .00000133  00000+0  42089-4 0  9992
2 28059  98.6909 195.5384 0047603 203.0872 156.8185 14.55115849205053
CZ-2C R/B               
1 28222U 04012C   26195.48730782  .00108426  00000+0  45734-3 0  9991
2 28222  97.7049 274.4510 0011242 192.5821 167.5170 15.85054763224217
SL-16 R/B               
1 28353U 04021B   26195.80965154 -.00000015  00000+0  17067-4 0  9990
2 28353  71.0028 325.7174 0006324 225.4145 134.6462 14.14616433140811
CZ-4B R/B               
1 28415U 04035C   26195.65206726  .00004106  00000+0  13801-3 0  9995
2 28415  97.3356 228.4210 0029202 234.6367 125.2144 15.30987155199327
CZ-2C R/B               
1 28480U 04046B   26195.74750426  .00000060  00000+0  36932-4 0  9996
2 28480  98.1917 102.8022 0140101 138.7113 222.4765 14.27033036126629
ARIANE 5 R/B            
1 28499U 04049H   26195.47809038  .00000247  00000+0  34212-4 0  9999
2 28499  98.2740   8.7894 0082671 300.6465  58.6618 14.85478542164618
CZ-2D R/B               
1 28738U 05024B   26195.60649926  .00045115  00000+0  33563-3 0  9992
2 28738  97.3471 216.4662 0002298 192.6193 167.5013 15.72696978159648
ALOS (DAICHI)           
1 28931U 06002A   26195.86081980  .00000462  00000+0  85198-4 0  9990
2 28931  98.1339 151.3450 0000806  98.0057 262.1241 14.70101363 92162
H-2A R/B                
1 28932U 06002B   26195.47176488  .00004756  00000+0  22732-3 0  9990
2 28932  98.2588 353.7802 0050743 168.4726 191.7680 15.18437894113666
RESURS-DK 1             
1 29228U 06021A   26195.59943744  .00000920  00000+0  57623-4 0  9997
2 29228  69.9308 268.5885 0007075 271.7724  88.2632 15.13317802106727
CZ-4B R/B               
1 29507U 06046C   26195.67692159  .00002458  00000+0  12284-3 0  9995
2 29507  97.5439 240.1997 0032536 183.8870 176.2116 15.17978865 79308
CZ-2C R/B               
1 31114U 07010B   26195.81659380  .00000027  00000+0  31648-4 0  9995
2 31114  98.4119 302.8190 0057780 284.8904  74.5879 14.20281712997765
