OBJECT_NAME,OBJECT_ID,EPOCH,MEAN_MOTION,ECCENTRICITY,INCLINATION,RA_OF_ASC_NODE,ARG_OF_PERICENTER,MEAN_ANOMALY,EPHEMERIS_TYPE,CLASSIFICATION_TYPE,NORAD_CAT_ID,ELEMENT_SET_NO,REV_AT_EPOCH,BSTAR,MEAN_MOTION_DOT,MEAN_MOTION_DDOT
SL-16 R/B,1996-051B,2026-07-14T15:37:19.221024,14.12456256,.001776,70.7647,266.5289,298.7889,61.1447,0,U,24298,999,53957,.11113E-3,.156E-5,0
ORBVIEW 2 (SEASTAR),1997-037A,2026-07-14T11:33:06.966432,14.35566571,.00031134,98.8713,3.2603,62.3841,297.7659,0,U,24883,999,52666,.49189663E-4,.95E-6,0
SL-16 R/B,1998-043G,2026-07-14T20:47:50.029728,14.26072659,.0010051,98.8379,150.2662,12.4106,347.7319,0,U,25400,999,45711,.17284E-4,-.4E-7,0
SL-16 R/B,1998-045B,2026-07-14T15:23:25.831680,14.16205496,.0008206,71.0111,274.5935,207.4322,152.6369,0,U,25407,999,44507,-.83583E-4,-.213E-5,0
ISS (ZARYA),1998-067A,2026-07-14T20:43:00.778080,15.49008846,.0006677,51.6306,163.1262,297.0398,62.9909,0,U,25544,999,57604,.54527E-4,.2555E-4,0
CZ-4B R/B,1999-025C,2026-07-14T17:34:05.021184,14.18287646,.003666,98.6472,236.8754,341.0970,130.5114,0,U,25732,999,40617,.30054E-4,.19E-6,0
OKEAN-O,1999-039A,2026-07-14T17:17:00.390624,14.80497069,.0000903,97.9302,254.1999,85.5938,274.5378,0,U,25860,999,45318,.41628E-4,.267E-5,0
SL-16 R/B,1999-039B,2026-07-14T17:11:35.111040,14.81870483,.0014274,97.9824,254.4989,199.9927,160.0728,0,U,25861,999,45567,.34052E-4,.216E-5,0
DELTA 2 R/B,1999-041E,2026-07-14T06:49:52.750848,14.12082542,.05013648,51.7612,155.5352,2.0695,358.2160,0,U,25876,999,38091,.25316376E-3,.1336E-4,0
HELIOS 1B,1999-064A,2026-07-14T17:57:42.159168,14.88074608,.0001961,98.1585,101.6834,54.2215,305.9183,0,U,25977,999,70415,.78572E-4,.664E-5,0
TERRA,1999-068A,2026-07-14T19:50:04.198272,14.61123539,.0003396,97.9442,244.2747,123.3921,325.4297,0,U,25994,999,41364,.4811E-4,.192E-5,0
SL-16 R/B,2000-006B,2026-07-14T09:46:01.090848,14.15838156,.00171677,71.0002,191.3903,341.0591,18.9892,0,U,26070,999,36649,-.62755376E-4,-.171E-5,0
TITAN 4B R/B,2000-047B,2026-07-14T19:25:30.491616,15.10332053,.0045845,67.9873,42.8137,259.1344,100.4644,0,U,26474,999,41210,.82196E-4,.1241E-4,0
ENVISAT,2002-009A,2026-07-14T20:25:40.947168,14.39070704,.000133,98.3846,146.5548,83.5093,331.0582,0,U,27386,999,27746,.19377E-4,.17E-6,0
IDEFIX & ARIANE 42P R/B,2002-021B,2026-07-14T19:35:59.892288,14.31093652,.0011865,98.5942,133.0011,167.5595,192.5883,0,U,27422,999,26220,.48864E-4,.85E-6,0
AQUA,2002-022A,2026-07-14T12:07:11.762400,14.62196472,.0000927,98.4295,165.3370,111.8770,0.7592,0,U,27424,999,28726,.80863616E-4,.358E-5,0
CZ-4B R/B,2002-024C,2026-07-14T18:21:04.482144,14.14568199,.0050492,98.8687,248.4036,23.2026,85.5401,0,U,27432,999,24720,.26782E-4,.8E-7,0
MIDORI II (ADEOS-II),2002-056A,2026-07-14T20:36:19.043136,14.29362945,.0001493,98.7894,155.3561,41.2919,318.8375,0,U,27597,999,22846,.54332E-4,.93E-6,0
H-2A R/B,2002-056E,2026-07-14T20:30:14.709888,14.33833787,.007087,98.3328,151.5226,141.9332,273.2130,0,U,27601,999,23233,.55161E-4,.117E-5,0
CZ-4B R/B,2003-049C,2026-07-14T14:22:46.223904,14.55115849,.00476034,98.6909,195.5384,203.0872,156.8185,0,U,28059,999,20505,.42089293E-4,.133E-5,0
CZ-2C R/B,2004-012C,2026-07-14T11:41:43.395648,15.85054763,.00112422,97.7049,274.4510,192.5821,167.5170,0,U,28222,999,22421,.4573359E-3,.108426E-2,0
SL-16 R/B,2004-021B,2026-07-14T19:25:53.893056,14.14616433,.0006324,71.0028,325.7174,225.4145,134.6462,0,U,28353,999,14081,.17067E-4,-.15E-6,0
CZ-4B R/B,2004-035C,2026-07-14T15:38:58.611264,15.30987155,.0029202,97.3356,228.4210,234.6367,125.2144,0,U,28415,999,19932,.13801E-3,.4106E-4,0
CZ-2C R/B,2004-046B,2026-07-14T17:56:24.368064,14.27033036,.0140101,98.1917,102.8022,138.7113,222.4765,0,U,28480,999,12662,.36932E-4,.6E-6,0
ARIANE 5 R/B,2004-049H,2026-07-14T11:28:27.008832,14.85478542,.00826716,98.2740,8.7894,300.6465,58.6618,0,U,28499,999,16461,.3421238E-4,.247E-5,0
CZ-2D R/B,2005-024B,2026-07-14T14:33:21.536064,15.72696978,.0002298,97.3471,216.4662,192.6193,167.5013,0,U,28738,999,15964,.33563E-3,.45115E-3,0
ALOS (DAICHI),2006-002A,2026-07-14T20:39:34.830720,14.70101363,.0000806,98.1339,151.3450,98.0057,262.1241,0,U,28931,999,9216,.85198E-4,.462E-5,0
H-2A R/B,2006-002B,2026-07-14T11:19:20.485632,15.18437894,.00507437,98.2588,353.7802,168.4726,191.7680,0,U,28932,999,11366,.22731998E-3,.4756E-4,0
RESURS-DK 1,2006-021A,2026-07-14T14:23:11.394816,15.13317802,.0007075,69.9308,268.5885,271.7724,88.2632,0,U,29228,999,10672,.57623E-4,.92E-5,0
CZ-4B R/B,2006-046C,2026-07-14T16:14:46.025376,15.17978865,.0032536,97.5439,240.1997,183.8870,176.2116,0,U,29507,999,7930,.12284E-3,.2458E-4,0
CZ-2C R/B,2007-010B,2026-07-14T19:35:53.704320,14.20281712,.005778,98.4119,302.8190,284.8904,74.5879,0,U,31114,999,99776,.31648E-4,.27E-6,0
